name,city,street,opening_hours,phone,lat,lon
Бели Мурги,,,,,41.9880653,21.4158375
ООУ „Свети Климент Охридски“ - Бутел,,,,,42.0401876,21.445394
Музичко-балетско училиште „Илија Николовски - Луј“,,,,,41.9983639,21.4355617
Партенија Зографски,,,,,41.982566,21.4363017
о.у. „Гоце Делчев“,,,,,41.9930543,21.581798
Дом за Слепи,,,,,41.9757689,21.4411963
ИТ Академија Александрија,,,,,41.9967522,21.4073092
SH.F „ 25 Maji “,,,,,42.0126768,21.5104934
ДСУ  Никола Карев,,Никола Русински,,,42.0041882,21.4011992
Едукативен центар СОНЦЕ,,,,,41.9866117,21.4670763
ASM,,,,,42.0069742,21.3831677
ОУ Кирил и Медодиј,,,,,42.0279527,21.5133898
Helen Doron Kapistec,,,,,41.9914476,21.4174048
Casta Diva,,Васил Главинов,16:00-22:00,38923220205,41.9967891,21.4283169
Универзитет за туризам и менаџмент,,,,,42.0022668,21.398993
Deutsches Sprachzentrum,,Булевар Климент Охридски,,,42.0000789,21.4265771
ОУ Jохан Хајнрих Песталоци,,,,,41.9974458,21.4207761
ОУ Братство,,,,,42.0014174,21.3887245
ОУ Јан Амос Коменски,,,,,42.0007834,21.3940669
ОУ Коле Неделковски,,,,,42.0004114,21.420153
ОУ Вера Јоциќ,,,,,41.9951468,21.508095
ОУ Димо Хаџи Димов,,,,,42.0052377,21.373704
QSI International School of Skopje,,,,,42.0074543,21.4131199
ОУ Дане Крапчев,,,,,42.0036889,21.5029474
Средно медицинско,,,,,41.9907187,21.4229867
СГГУ Здравко Цветковски,,,,,42.0012335,21.4026117
ОУ Лазар Трповски,,,,,42.0062139,21.398325
Меѓународни Училишта НОВА (гимназија),Cкoпje,Прашка,,+389 2 3061 807,41.998682,21.3934916
ОУ „26 Јули“,,,,,42.0350555,21.4253708
Детска градинка Пролет 2,Скопје,Милан Марковиќ,,38923085701,41.9928542,21.4030947
ОУ Наум Наумовски Борче,,,,,41.9988671,21.4994041
СУГС Арсениј Јовков,,,,,42.0227827,21.44303
ОУ Адем Јашари,,,,,42.0111173,21.4380415
Ќемал Јахија,,,,,42.0300433,21.4411245
ПОУ Јахја Кемал,Cкoпje,Варшавска,,+389 2 3074168,42.0009715,21.3926854
О.У. Страшо Пинџур,,,,,42.0178598,21.3547045
Медиа Арт Студио,Cкoпje,Франклин Рузвелт,,,42.0002295,21.4129185
Средно уметничко училиште „Лазар Личеновски“,Cкoпje,Киро Крстевски Платник,,,41.995548,21.4207442
ОУ „Кузман Јосифовски - Питу “,Cкoпje,,,,41.9828558,21.4316583
ОУ „Кузман Јосифовски - Питу“,,,,,41.9869025,21.4323628
ОУ „Вера Циривири Трена“,Cкoпje,Руѓер Бошковиќ,,+38923068507;+38923073069,42.003633,21.4087699
О.У „Ацо Шопов“,,,,,42.0623645,21.4521691
ОУ „Браќа Миладиновци“,,,,,41.9913054,21.4512524
ОУ „Блаже Конески“,,,,,41.9867408,21.4499988
ОУ „Димитар Миладинов“,,,,,41.9892077,21.4347754
ОУ Глигор Прличев,Скопје,Гемиџиска,,,42.0146285,21.4588956
СУ Панче Арсовски,,,,,42.0061261,21.4645572
ОУ Владо Тасевски,,,,,41.9961947,21.395978
Средно угостителско училиште „Лазар Танев“,,,,+389 2 3085035;+389 2 3086292,41.9931939,21.3994474
ОУ Кирил и Методиј,,,,,41.9973785,21.4389267
ОУ Стив Наумов,,,,,42.0034816,21.4661397
ОУ 11-ти Октомври,,,,,41.9891872,21.4406175
СУГС „Раде Јовчевски - Корчагин“,,,,,41.9905733,21.4380717
СУГС Гимназија „Орце Николов“,Cкoпje,Булевар Илинден,,+389 2 3065 555,42.0061355,21.4124713
ОУ Цветан Димов,,Коста Абрашевиќ,,,42.0104452,21.4416559
ОУ Васил Главинов,,,,,42.0134211,21.4332456
СУГС Цветан Димов,,,,,42.0139402,21.4376104
ОУ Рајко Жинзифов,,,,,42.0196767,21.4335627
ОУ Петар Здравковски Пенко,,,,,42.0219663,21.4428671
Заводот за рехабилитација на деца и младинци “Топанско поле”,,,,,42.0230019,21.4354433
СУГС Зефљуш Марку,,,,,42.0243618,21.4350155
ОУ Панајот Гиновски,,,,,42.0208223,21.4517926
ОУ Лирија,,Булевар Цветан Димов,,,42.0085566,21.4444586
ОУ Тефјуз,,,,,42.0048655,21.4432037
ОУ Иднина,,Втора Македонска Бригада,,,42.0208292,21.4462027
ОУ Никола Вапцаров,,Браќа Реџепагиќ,,,42.0160487,21.4410866
ОУ Јашар Беј Шкупи,,Прохор Пчински,,,42.0052312,21.4362644
ОУ „Кочо Рацин “,,,,,41.9870488,21.4172215
ОУ Живко Брајковски,,,,,42.0309216,21.446902
ОУ Војдан Чернодрински,,,,,41.9987542,21.4101522
СУГС Георги Димитров,,,,,41.9997037,21.4019021
ОУ Христијан Тодоровски Карпош,,,,+389 (02) 3067-407,42.0042785,21.4131522
Центар за странски јазици,Cкoпje,,,+389 (0)2 306 77 83,42.0045613,21.4137621
Меѓународни Училишта НОВА (основно училиште),Cкoпje,Прашка,,+389 2 3061 807,41.9985982,21.3942521
ОУ Димитар Беровски,,,,,42.003117,21.3574814
СУГС Кочо Рацин,,,,,42.0043695,21.3638121
ОУ Партение Зографски,,,,,42.0029025,21.4817394
ОУ Климент Охридски,,,,,41.9305394,21.5262392
СУГС Браќа Миладиновци,,,,,41.9355621,21.5227727
ОУ Рајко Жинзифов,,,,,41.9409409,21.5099439
ОУ Кузман Шапкарев,,,,,41.9412925,21.5220616
Средно Богословско Училиште   Св.Климент Охридски”,,,,,41.930702,21.5250014
ОУ Лазо Ангеловски,,,,,41.9831139,21.4801673
ОУ Ѓорѓија Пулевски,,,,,41.989496,21.4647295
С.У.Г.С. Владо Тасевски,,Булевар 3та Македонска Бригада,,,41.9779285,21.4614259
ОУ Невена Георгиева Дуња,,,,,41.9804094,21.4452441
ОУ Ѓорче Петров,,4 Јули,,,42.0077915,21.3368528
АСУЦ Боро Петрушевски,,,,,42.0015951,21.4754763
ОУ Јоаким Крчовски,,,,,42.0545245,21.3489186
ОУ Јоаким Крчовски,,,,,42.0681485,21.3365301
ОУ Борис Кидрич,,,,,41.9798991,21.438909
ОУ Тихомир Милошевски,,,,,42.0311313,21.3494164
СЕТУ Михајло Пупин,,,,,42.0022755,21.4794205
СУГС „Марија Кири Склодовска“,,Булевар 3та Македонска Бригада,,,41.9788554,21.4642829
ОУ Рајко Жинзифов,,,,,41.95583,21.4836519
Градинка Буба Мара,,,,,41.9841537,21.47891
О.У. Гоце Делчев,,,,,41.9698352,21.4870371
О.У. Александар Македонски,,,,,41.9793878,21.471096
Градинка Весели Цветови,,Кресна,,,41.976845,21.4665127
ООУ „Димитар Македонски“,Скопје,Ѓуро Малешевац,,+389 2 2440 011,41.9735867,21.476256
ДСУ Димитар Влахов,,,,,41.9853253,21.4458968
Др. Златан Сремец,,,,,41.9848465,21.4366391
ОУГС Битолски Конгрес,,,,,42.001846,21.4439235
ОУ „Аврам Писевски“,,,,,42.0261333,21.3832835
ОУ Димитар Поп Георгиев - Беровски,,,,,42.0039542,21.3705171
ООУ Ѓорѓија Кастриот,,,,,42.0238679,21.5602465
Интернационално Школо,,,,,42.0006861,21.4221375
ОУ Крсте Мисирков,Скопје,Сречко Пужаљка,,+389 2 322 6655,42.0103646,21.5047664
QSI International School of Skopje,,,,,42.0019154,21.3819861
СУГС Никола Карев,,,,,42.0044059,21.4002679
Петар Поп Арсов,,,,,42.0063887,21.3878232
ОУ Мирче Ацев,,,,,42.0081353,21.3508135
Shkolla Emin Duraku,,,,,41.973436,21.2378011
Kiril Pejchinovik,,,,,41.9781468,21.4443324
Гимназија „Јосип Броз Тито“,Cкoпje,Димитрије Чуповски,,+389 2 3214 314,41.9944666,21.4261921
ООУ  Киро Глигоров'',Cкoпje,Aдам Мицкиевиќ,,+38926142744;+38926142745,41.9925398,21.4143237
Гоце Делчев,Скопје,Градски зид,,+389 (02) 3129062,41.9926194,21.4280379
ОУ Глигор Прличев,,,,,42.0145635,21.4588205
ОУГС Љубен Лапе,Cкoпje,,,,41.9843491,21.4603752
